MOLNIYA 2-9             
1 07276U 74026A   23013.52226525  .00000210  00000+0  00000+0 0  9990
2 07276  64.2832 198.3329 6404232 278.5362  18.4881  2.45096309254366
MOLNIYA 2-10            
1 07376U 74056A   23014.22188985  .00000128  00000+0  00000+0 0  9997
2 07376  64.4446  72.7586 6774587 284.9664  13.7536  2.01202513354622
MOLNIYA 1-S             
1 07392U 74060A   23015.43621279  .00000173  00000+0  00000+0 0  9992
2 07392   4.5805 279.6688 0010075 216.2772 178.1574  1.00252509121631
MOLNIYA 1-29            
1 07780U 75036A   23013.53613122  .00000148  00000+0 -89758-1 0  9996
2 07780  63.4163 192.4014 6809365 287.8083  12.7254  2.00585011349831
MOLNIYA 2-14            
1 08195U 75081A   23013.49139708  .00000171  00000+0  00000+0 0  9991
2 08195  63.3974 165.8181 6734966 292.0660  12.0227  2.02103849347134
MOLNIYA 1-32            
1 08601U 76006A   23014.50041519 -.00000075  00000+0  00000+0 0  9990
2 08601  63.5478 269.0452 7156348 283.9088  11.7796  2.00092230343223
MOLNIYA 1-36            
1 09880U 77021A   23015.55375809 -.00001174  00000+0  00000+0 0  9997
2 09880  63.4765 241.3571 7070298 289.5167  10.9025  2.00607621233719
MOLNIYA 3-8             
1 10455U 77105A   23013.84102786 -.00001396  00000+0 -16473-2 0  9993
2 10455  63.4324 326.0963 7329490 282.5837  10.9832  2.00519337331366
MOLNIYA 1-40            
1 10925U 78055A   23013.01526749 -.00000915  00000+0  00000+0 0  9999
2 10925  63.5638  18.1703 7271018 280.7363  11.6797  2.00654765326888
MOLNIYA 3-10            
1 11057U 78095A   23014.14912656  .00000027  00000+0  57717-3 0  9995
2 11057  63.2480 321.9886 5775384 311.9176  11.5062  4.09874720392373
MOLNIYA 3-13            
1 11896U 80063A   23014.28947509 -.00000120  00000+0  00000+0 0  9998
2 11896  62.7680 109.9813 7160556 276.6556  13.5814  2.00618168311373
MOLNIYA 1-49            
1 12156U 81009A   23012.23088593 -.00000108  00000+0  64193-3 0  9994
2 12156  61.6904 132.9621 7339542 265.6482  15.7102  2.05701788225781
MOLNIYA 1-52            
1 13012U 81123A   23012.77965651  .00001669  00000+0  16940-1 0  9998
2 13012  61.6372 248.6601 7197331 257.7621  20.2560  2.00629048300775
MOLNIYA 1-53            
1 13070U 82015A   23015.46473204 -.00000598  00000+0 -87315-2 0  9997
2 13070  62.5426 188.5186 6971612 283.1373  12.9897  2.00390665299506
MOLNIYA 3-20            
1 13875U 83015A   23014.88701830  .00000031  00000+0 -75614-3 0  9996
2 13875  62.5925 319.1815 7382396 260.1521  17.5008  2.00869202227997
MOLNIYA 1-56            
1 13890U 83019A   23013.24859255 -.00000927  00000+0  94378-3 0  9993
2 13890  62.8934 344.1541 7446601 265.9669  14.7797  2.00036446290795
MOLNIYA 1-63            
1 15429U 84124A   23013.84673969 -.00000911  00000+0  00000+0 0  9991
2 15429  63.7246 147.2958 6719781 258.1355  47.9225  2.00731964278980
MOLNIYA 3-24            
1 15738U 85040A   23013.23111944 -.00000219  00000+0 -17450-2 0  9997
2 15738  63.5775  43.0946 6864876 247.2307  30.0921  2.55630497309238
MOLNIYA 3-27            
1 16393U 85117A   23014.15225348 -.00000179  00000+0  00000+0 0  9990
2 16393  64.2797  53.4296 7056001 247.1154  27.8067  2.12398435278678
MOLNIYA 1-69            
1 17078U 86089A   23014.14789769  .00001147  00000+0  00000+0 0  9996
2 17078  64.0166 166.3564 6708436 256.3784  26.0176  2.00770588265077
MOLNIYA 3-31            
1 17328U 87008A   23012.77996428 -.00000153  00000+0  00000+0 0  9992
2 17328  63.6597 103.0324 7143928 253.2370  23.0528  2.00677808260060
MOLNIYA 1-71            
1 18946U 88017A   23014.26270372  .00000046  00000+0  00000+0 0  9999
2 18946  63.3388  95.3208 7255435 256.3379  20.2918  2.00574121255325
MOLNIYA 1-75            
1 19807U 89014A   23013.50572744 -.00000218  00000+0  00000+0 0  9990
2 19807  63.9603 261.8880 6782178 265.9246  20.5569  2.00542201248210
MOLNIYA 1-80            
1 21118U 91012A   23015.08863500  .00000862  00000+0  00000+0 0  9991
2 21118  65.1874 310.1275 6733803 274.8724  17.4083  2.05232174235334
MOLNIYA 3-40            
1 21196U 91022A   23015.15075453 -.00000176  00000+0  00000+0 0  9997
2 21196  65.0653 303.8324 6760994 271.7458  18.3685  2.02996198233953
MOLNIYA 1-81            
1 21426U 91043A   23014.37399621 -.00000125  00000+0  00000+0 0  9999
2 21426  63.9893 317.4023 7063551 265.8444  18.1057  2.00614790231372
MOLNIYA 3-41            
1 21706U 91065A   23013.82236023 -.00000894  00000+0  00000+0 0  9992
2 21706  64.0862 142.6481 6933761 253.9578  24.9708  2.04357270231167
MOLNIYA 3-42            
1 22178U 92067A   23012.01998918  .00000232  00000+0  00000+0 0  9992
2 22178  64.6762 194.1223 6419864 263.6070  24.9972  2.20434576 84656
MOLNIYA 1-86            
1 22671U 93035A   23015.53174395  .00000160  00000+0  28318-3 0  9997
2 22671  63.0797 113.4632 4857842  10.5200 356.8175  5.62771876364184
MOLNIYA 1-87            
1 22949U 93079A   23015.02124606 -.00000553  00000+0  00000+0 0  9998
2 22949  64.2179  67.8122 6920345 282.9920  13.3656  2.02855630213577
MOLNIYA 1-88            
1 23420U 94081A   23014.55826469  .00000119  00000+0  00000+0 0  9997
2 23420  64.2809 149.2857 5797801 279.0913  23.0275  3.34495458254001
MOLNIYA 3-47            
1 23642U 95042A   23009.26184632  .00001069  00000+0  00000+0 0  9997
2 23642  64.3531  49.9927 6959062 283.3155  12.9757  2.01959886201175
MOLNIYA 1-90            
1 24960U 97054A   23013.32973650  .00000142  00000+0  67554-2 0  9995
2 24960  63.7041 115.3006 6097698 297.1306  14.2551  3.18688788214690
MOLNIYA 1-91            
1 25485U 98054A   23014.57253374  .00000165  00000+0  22925-2 0  9999
2 25485  63.1313 117.4159 6774236 291.8351 111.8592  2.36442788183367
MOLNIYA 3-50            
1 25847U 99036A   23014.82561186 -.00000429  00000+0 -53388-2 0  9995
2 25847  63.2974 302.3938 7317087 282.5720  11.1079  2.00642046172357
